[{"OBJECT_NAME":"KUIPER-00229","OBJECT_ID":"2026-072F","EPOCH":"2026-04-27T12:00:02.000160","MEAN_MOTION":15.22726263,"ECCENTRICITY":0.0007401,"INCLINATION":51.8784,"RA_OF_ASC_NODE":62.6526,"ARG_OF_PERICENTER":203.5094,"MEAN_ANOMALY":200.1425,"EPHEMERIS_TYPE":0,"CLASSIFICATION_TYPE":"U","NORAD_CAT_ID":68578,"ELEMENT_SET_NO":999,"REV_AT_EPOCH":462,"BSTAR":-0.092033,"MEAN_MOTION_DOT":-0.01971699,"MEAN_MOTION_DDOT":0},{"OBJECT_NAME":"KUIPER-00230","OBJECT_ID":"2026-072G","EPOCH":"2026-04-24T12:06:36.493920","MEAN_MOTION":15.38584903,"ECCENTRICITY":0.0001711,"INCLINATION":51.8768,"RA_OF_ASC_NODE":76.3788,"ARG_OF_PERICENTER":125.7114,"MEAN_ANOMALY":234.4032,"EPHEMERIS_TYPE":0,"CLASSIFICATION_TYPE":"U","NORAD_CAT_ID":68579,"ELEMENT_SET_NO":999,"REV_AT_EPOCH":312,"BSTAR":0.0005677367,"MEAN_MOTION_DOT":0.00021639,"MEAN_MOTION_DDOT":0},{"OBJECT_NAME":"KUIPER-00231","OBJECT_ID":"2026-072H","EPOCH":"2026-04-24T12:15:21.264192","MEAN_MOTION":15.38194919,"ECCENTRICITY":0.00025784,"INCLINATION":51.8747,"RA_OF_ASC_NODE":76.4247,"ARG_OF_PERICENTER":147.4825,"MEAN_ANOMALY":212.6321,"EPHEMERIS_TYPE":0,"CLASSIFICATION_TYPE":"U","NORAD_CAT_ID":68580,"ELEMENT_SET_NO":999,"REV_AT_EPOCH":312,"BSTAR":0.00081157422,"MEAN_MOTION_DOT":0.00030745,"MEAN_MOTION_DDOT":0},{"OBJECT_NAME":"KUIPER-00234","OBJECT_ID":"2026-072J","EPOCH":"2026-04-24T12:08:12.503328","MEAN_MOTION":15.38615979,"ECCENTRICITY":0.00021389,"INCLINATION":51.8759,"RA_OF_ASC_NODE":76.3918,"ARG_OF_PERICENTER":128.1129,"MEAN_ANOMALY":232.0052,"EPHEMERIS_TYPE":0,"CLASSIFICATION_TYPE":"U","NORAD_CAT_ID":68581,"ELEMENT_SET_NO":999,"REV_AT_EPOCH":312,"BSTAR":0.00058242397,"MEAN_MOTION_DOT":0.00022234,"MEAN_MOTION_DDOT":0},{"OBJECT_NAME":"KUIPER-00236","OBJECT_ID":"2026-072K","EPOCH":"2026-04-24T12:09:57.134592","MEAN_MOTION":15.38441857,"ECCENTRICITY":0.00026063,"INCLINATION":51.8762,"RA_OF_ASC_NODE":76.3979,"ARG_OF_PERICENTER":138.3606,"MEAN_ANOMALY":221.758,"EPHEMERIS_TYPE":0,"CLASSIFICATION_TYPE":"U","NORAD_CAT_ID":68582,"ELEMENT_SET_NO":999,"REV_AT_EPOCH":312,"BSTAR":0.00059215864,"MEAN_MOTION_DOT":0.00022484,"MEAN_MOTION_DDOT":0},{"OBJECT_NAME":"KUIPER-00244","OBJECT_ID":"2026-072L","EPOCH":"2026-04-24T12:17:14.958816","MEAN_MOTION":15.38127902,"ECCENTRICITY":0.00038295,"INCLINATION":51.8758,"RA_OF_ASC_NODE":76.4315,"ARG_OF_PERICENTER":159.4299,"MEAN_ANOMALY":200.6843,"EPHEMERIS_TYPE":0,"CLASSIFICATION_TYPE":"U","NORAD_CAT_ID":68583,"ELEMENT_SET_NO":999,"REV_AT_EPOCH":312,"BSTAR":0.00065599421,"MEAN_MOTION_DOT":0.00024703,"MEAN_MOTION_DDOT":0},{"OBJECT_NAME":"KUIPER-00253","OBJECT_ID":"2026-072M","EPOCH":"2026-04-24T12:25:44.758560","MEAN_MOTION":15.37631976,"ECCENTRICITY":0.00051209,"INCLINATION":51.8715,"RA_OF_ASC_NODE":76.4692,"ARG_OF_PERICENTER":169.73,"MEAN_ANOMALY":190.3792,"EPHEMERIS_TYPE":0,"CLASSIFICATION_TYPE":"U","NORAD_CAT_ID":68584,"ELEMENT_SET_NO":999,"REV_AT_EPOCH":312,"BSTAR":0.00064254401,"MEAN_MOTION_DOT":0.00023799,"MEAN_MOTION_DDOT":0},{"OBJECT_NAME":"KUIPER-00254","OBJECT_ID":"2026-072N","EPOCH":"2026-04-24T12:36:27.239328","MEAN_MOTION":15.37049938,"ECCENTRICITY":0.00073449,"INCLINATION":51.8719,"RA_OF_ASC_NODE":76.5173,"ARG_OF_PERICENTER":174.3529,"MEAN_ANOMALY":185.7541,"EPHEMERIS_TYPE":0,"CLASSIFICATION_TYPE":"U","NORAD_CAT_ID":68585,"ELEMENT_SET_NO":999,"REV_AT_EPOCH":312,"BSTAR":-3.9763188e-5,"MEAN_MOTION_DOT":-1.859e-5,"MEAN_MOTION_DDOT":0},{"OBJECT_NAME":"KUIPER-00263","OBJECT_ID":"2026-072P","EPOCH":"2026-04-24T12:06:04.698720","MEAN_MOTION":15.38694735,"ECCENTRICITY":0.00021527,"INCLINATION":51.8768,"RA_OF_ASC_NODE":76.3793,"ARG_OF_PERICENTER":100.806,"MEAN_ANOMALY":259.317,"EPHEMERIS_TYPE":0,"CLASSIFICATION_TYPE":"U","NORAD_CAT_ID":68586,"ELEMENT_SET_NO":999,"REV_AT_EPOCH":312,"BSTAR":0.00067733115,"MEAN_MOTION_DOT":0.00026002,"MEAN_MOTION_DDOT":0},{"OBJECT_NAME":"KUIPER-00269","OBJECT_ID":"2026-072Q","EPOCH":"2026-04-24T10:48:47.238336","MEAN_MOTION":15.37758639,"ECCENTRICITY":0.00044455,"INCLINATION":51.8742,"RA_OF_ASC_NODE":76.7694,"ARG_OF_PERICENTER":154.0169,"MEAN_ANOMALY":206.1042,"EPHEMERIS_TYPE":0,"CLASSIFICATION_TYPE":"U","NORAD_CAT_ID":68587,"ELEMENT_SET_NO":999,"REV_AT_EPOCH":311,"BSTAR":0.00050057024,"MEAN_MOTION_DOT":0.00018515,"MEAN_MOTION_DDOT":0},{"OBJECT_NAME":"KUIPER-00272","OBJECT_ID":"2026-072R","EPOCH":"2026-04-27T12:00:02.000160","MEAN_MOTION":15.31243865,"ECCENTRICITY":0.0005372,"INCLINATION":51.8763,"RA_OF_ASC_NODE":62.1568,"ARG_OF_PERICENTER":171.6754,"MEAN_ANOMALY":81.3001,"EPHEMERIS_TYPE":0,"CLASSIFICATION_TYPE":"U","NORAD_CAT_ID":68588,"ELEMENT_SET_NO":999,"REV_AT_EPOCH":310,"BSTAR":-0.00049683,"MEAN_MOTION_DOT":-0.00015556,"MEAN_MOTION_DDOT":0},{"OBJECT_NAME":"KUIPER-00285","OBJECT_ID":"2026-072S","EPOCH":"2026-04-24T12:28:44.337504","MEAN_MOTION":15.37513812,"ECCENTRICITY":0.00062663,"INCLINATION":51.8734,"RA_OF_ASC_NODE":76.4832,"ARG_OF_PERICENTER":174.0062,"MEAN_ANOMALY":186.1001,"EPHEMERIS_TYPE":0,"CLASSIFICATION_TYPE":"U","NORAD_CAT_ID":68589,"ELEMENT_SET_NO":999,"REV_AT_EPOCH":312,"BSTAR":0.00053574805,"MEAN_MOTION_DOT":0.00019694,"MEAN_MOTION_DDOT":0},{"OBJECT_NAME":"KUIPER-00286","OBJECT_ID":"2026-072T","EPOCH":"2026-04-24T12:20:47.123520","MEAN_MOTION":15.37864593,"ECCENTRICITY":0.00044962,"INCLINATION":51.8734,"RA_OF_ASC_NODE":76.4479,"ARG_OF_PERICENTER":154.268,"MEAN_ANOMALY":205.8531,"EPHEMERIS_TYPE":0,"CLASSIFICATION_TYPE":"U","NORAD_CAT_ID":68590,"ELEMENT_SET_NO":999,"REV_AT_EPOCH":312,"BSTAR":0.00048057483,"MEAN_MOTION_DOT":0.00017821,"MEAN_MOTION_DDOT":0},{"OBJECT_NAME":"KUIPER-00289","OBJECT_ID":"2026-072U","EPOCH":"2026-04-24T12:53:51.394560","MEAN_MOTION":15.36178672,"ECCENTRICITY":0.00104058,"INCLINATION":51.8662,"RA_OF_ASC_NODE":76.5874,"ARG_OF_PERICENTER":190.148,"MEAN_ANOMALY":169.9297,"EPHEMERIS_TYPE":0,"CLASSIFICATION_TYPE":"U","NORAD_CAT_ID":68591,"ELEMENT_SET_NO":999,"REV_AT_EPOCH":312,"BSTAR":0.00048039628,"MEAN_MOTION_DOT":0.00016874,"MEAN_MOTION_DDOT":0},{"OBJECT_NAME":"KUIPER-00290","OBJECT_ID":"2026-072V","EPOCH":"2026-04-24T12:52:51.877056","MEAN_MOTION":15.36200356,"ECCENTRICITY":0.0010687,"INCLINATION":51.8647,"RA_OF_ASC_NODE":76.5807,"ARG_OF_PERICENTER":187.1982,"MEAN_ANOMALY":172.8852,"EPHEMERIS_TYPE":0,"CLASSIFICATION_TYPE":"U","NORAD_CAT_ID":68592,"ELEMENT_SET_NO":999,"REV_AT_EPOCH":312,"BSTAR":0.00046719009,"MEAN_MOTION_DOT":0.00016412,"MEAN_MOTION_DDOT":0},{"OBJECT_NAME":"KUIPER-00293","OBJECT_ID":"2026-072W","EPOCH":"2026-04-24T11:26:42.050976","MEAN_MOTION":15.35720048,"ECCENTRICITY":0.00110577,"INCLINATION":51.865,"RA_OF_ASC_NODE":76.9283,"ARG_OF_PERICENTER":192.3495,"MEAN_ANOMALY":167.7222,"EPHEMERIS_TYPE":0,"CLASSIFICATION_TYPE":"U","NORAD_CAT_ID":68593,"ELEMENT_SET_NO":999,"REV_AT_EPOCH":311,"BSTAR":0.00051518923,"MEAN_MOTION_DOT":0.00017862,"MEAN_MOTION_DDOT":0},{"OBJECT_NAME":"KUIPER-00294","OBJECT_ID":"2026-072X","EPOCH":"2026-04-26T22:34:02.471232","MEAN_MOTION":15.36525805,"ECCENTRICITY":0.00093497,"INCLINATION":51.8679,"RA_OF_ASC_NODE":64.9444,"ARG_OF_PERICENTER":195.1707,"MEAN_ANOMALY":164.9,"EPHEMERIS_TYPE":0,"CLASSIFICATION_TYPE":"U","NORAD_CAT_ID":68594,"ELEMENT_SET_NO":999,"REV_AT_EPOCH":349,"BSTAR":0.00082784942,"MEAN_MOTION_DOT":0.00029736,"MEAN_MOTION_DDOT":0},{"OBJECT_NAME":"KUIPER-00296","OBJECT_ID":"2026-072Y","EPOCH":"2026-04-24T12:41:22.875936","MEAN_MOTION":15.36833013,"ECCENTRICITY":0.00083136,"INCLINATION":51.8701,"RA_OF_ASC_NODE":76.5374,"ARG_OF_PERICENTER":180.6054,"MEAN_ANOMALY":179.4924,"EPHEMERIS_TYPE":0,"CLASSIFICATION_TYPE":"U","NORAD_CAT_ID":68595,"ELEMENT_SET_NO":999,"REV_AT_EPOCH":312,"BSTAR":0.00055820519,"MEAN_MOTION_DOT":0.00020092,"MEAN_MOTION_DDOT":0},{"OBJECT_NAME":"KUIPER-00297","OBJECT_ID":"2026-072Z","EPOCH":"2026-04-24T11:17:25.788768","MEAN_MOTION":15.36226283,"ECCENTRICITY":0.00095238,"INCLINATION":51.8635,"RA_OF_ASC_NODE":76.8846,"ARG_OF_PERICENTER":185.9949,"MEAN_ANOMALY":174.0925,"EPHEMERIS_TYPE":0,"CLASSIFICATION_TYPE":"U","NORAD_CAT_ID":68596,"ELEMENT_SET_NO":999,"REV_AT_EPOCH":311,"BSTAR":0.00010100805,"MEAN_MOTION_DOT":3.237e-5,"MEAN_MOTION_DDOT":0},{"OBJECT_NAME":"KUIPER-00300","OBJECT_ID":"2026-072AA","EPOCH":"2026-04-24T12:37:42.563712","MEAN_MOTION":15.37032038,"ECCENTRICITY":0.00079935,"INCLINATION":51.8677,"RA_OF_ASC_NODE":76.5182,"ARG_OF_PERICENTER":181.6062,"MEAN_ANOMALY":178.49,"EPHEMERIS_TYPE":0,"CLASSIFICATION_TYPE":"U","NORAD_CAT_ID":68597,"ELEMENT_SET_NO":999,"REV_AT_EPOCH":312,"BSTAR":0.00053503879,"MEAN_MOTION_DOT":0.00019365,"MEAN_MOTION_DDOT":0},{"OBJECT_NAME":"KUIPER-00301","OBJECT_ID":"2026-072AB","EPOCH":"2026-04-24T12:43:47.126784","MEAN_MOTION":15.36702442,"ECCENTRICITY":0.00084862,"INCLINATION":51.8654,"RA_OF_ASC_NODE":76.5422,"ARG_OF_PERICENTER":184.1093,"MEAN_ANOMALY":175.9825,"EPHEMERIS_TYPE":0,"CLASSIFICATION_TYPE":"U","NORAD_CAT_ID":68598,"ELEMENT_SET_NO":999,"REV_AT_EPOCH":312,"BSTAR":0.0005617758,"MEAN_MOTION_DOT":0.00020138,"MEAN_MOTION_DDOT":0},{"OBJECT_NAME":"KUIPER-00304","OBJECT_ID":"2026-072AC","EPOCH":"2026-04-24T12:45:29.221344","MEAN_MOTION":15.36610685,"ECCENTRICITY":0.00090484,"INCLINATION":51.8671,"RA_OF_ASC_NODE":76.5509,"ARG_OF_PERICENTER":183.3607,"MEAN_ANOMALY":176.732,"EPHEMERIS_TYPE":0,"CLASSIFICATION_TYPE":"U","NORAD_CAT_ID":68599,"ELEMENT_SET_NO":999,"REV_AT_EPOCH":312,"BSTAR":0.00049242706,"MEAN_MOTION_DOT":0.00017547,"MEAN_MOTION_DDOT":0},{"OBJECT_NAME":"KUIPER-00317","OBJECT_ID":"2026-072AD","EPOCH":"2026-04-24T12:39:56.993472","MEAN_MOTION":15.36854983,"ECCENTRICITY":0.00085779,"INCLINATION":51.8688,"RA_OF_ASC_NODE":76.5296,"ARG_OF_PERICENTER":176.4866,"MEAN_ANOMALY":183.6182,"EPHEMERIS_TYPE":0,"CLASSIFICATION_TYPE":"U","NORAD_CAT_ID":68600,"ELEMENT_SET_NO":999,"REV_AT_EPOCH":312,"BSTAR":0.00056803711,"MEAN_MOTION_DOT":0.0002047,"MEAN_MOTION_DDOT":0}]
